CTC2_L_00506055-03
1 10434U 26123YB  26075.70047454  .00000000  00000+0  00000-0 0  9996
2 10434  96.8000 243.0000 0000000   0.0000 211.5000 15.75573400    13
CTC2_L_00506055-04
1 10435U 22732EY  26075.70047454  .00000000  00000+0  00000-0 0  9999
2 10435  96.8000 243.0000 0000000   0.0000 256.5000 15.75573400    13
CTC2_L_00506055-05
1 10436U 24875KG  26075.70047454  .00000000  00000+0  00000-0 0  9990
2 10436  96.8000 243.0000 0000000   0.0000 301.5000 15.75573400    15
CTC2_L_00506055-06
1 10437U 25018WF  26075.70047454  .00000000  00000+0  00000-0 0  9991
2 10437  96.8000 243.0000 0000000   0.0000 346.5000 15.75573400    15
CTC2_L_00506055-07
1 10438U 26820DZ  26075.70047454  .00000000  00000+0  00000-0 0  9994
2 10438  96.8000 243.0000 0000000   0.0000  31.5000 15.75573400    17
CTC2_L_00506055-08
1 10439U 24667BN  26075.70047454  .00000000  00000+0  00000-0 0  9992
2 10439  96.8000 243.0000 0000000   0.0000  76.5000 15.75573400    17
CTC2_L_00506056-01
1 10440U 26835KU  26075.70047454  .00000000  00000+0  00000-0 0  9993
2 10440  96.8000 247.5000 0000000   0.0000 123.7500 15.75573400    18
CTC2_L_00506056-02
1 10441U 24580JN  26075.70047454  .00000000  00000+0  00000-0 0  9999
2 10441  96.8000 247.5000 0000000   0.0000 168.7500 15.75573400    18
CTC2_L_00506056-03
1 10442U 24676TR  26075.70047454  .00000000  00000+0  00000-0 0  9996
2 10442  96.8000 247.5000 0000000   0.0000 213.7500 15.75573400    10
CTC2_L_00506056-04
1 10443U 23393DV  26075.70047454  .00000000  00000+0  00000-0 0  9992
2 10443  96.8000 247.5000 0000000   0.0000 258.7500 15.75573400    10
CTC2_L_00506056-05
1 10444U 26084M   26075.70047454  .00000000  00000+0  00000-0 0  9993
2 10444  96.8000 247.5000 0000000   0.0000 303.7500 15.75573400    12
CTC2_L_00506056-06
1 10445U 24661OO  26075.70047454  .00000000  00000+0  00000-0 0  9993
2 10445  96.8000 247.5000 0000000   0.0000 348.7500 15.75573400    12
CTC2_L_00506056-07
1 10446U 22293PF  26075.70047454  .00000000  00000+0  00000-0 0  9993
2 10446  96.8000 247.5000 0000000   0.0000  33.7500 15.75573400    14
CTC2_L_00506056-08
1 10447U 23721CJ  26075.70047454  .00000000  00000+0  00000-0 0  9991
2 10447  96.8000 247.5000 0000000   0.0000  78.7500 15.75573400    14
CTC2_L_00506057-01
1 10448U 22485QH  26075.70047454  .00000000  00000+0  00000-0 0  9998
2 10448  96.8000 252.0000 0000000   0.0000 126.0000 15.75573400    18
CTC2_L_00506057-02
1 10449U 26162Y   26075.70047454  .00000000  00000+0  00000-0 0  9995
2 10449  96.8000 252.0000 0000000   0.0000 171.0000 15.75573400    19
CTC2_L_00506057-03
1 10450U 25092GD  26075.70047454  .00000000  00000+0  00000-0 0  9998
2 10450  96.8000 252.0000 0000000   0.0000 216.0000 15.75573400    11
CTC2_L_00506057-04
1 10451U 22728AV  26075.70047454  .00000000  00000+0  00000-0 0  9992
2 10451  96.8000 252.0000 0000000   0.0000 261.0000 15.75573400    12
CTC2_L_00506057-05
1 10452U 25102NE  26075.70047454  .00000000  00000+0  00000-0 0  9992
2 10452  96.8000 252.0000 0000000   0.0000 306.0000 15.75573400    13
CTC2_L_00506057-06
1 10453U 24886UY  26075.70047454  .00000000  00000+0  00000-0 0  9991
2 10453  96.8000 252.0000 0000000   0.0000 351.0000 15.75573400    14
CTC2_L_00506057-07
1 10454U 22561CM  26075.70047454  .00000000  00000+0  00000-0 0  9990
2 10454  96.8000 252.0000 0000000   0.0000  36.0000 15.75573400    15
CTC2_L_00506057-08
1 10455U 26721SO  26075.70047454  .00000000  00000+0  00000-0 0  9993
2 10455  96.8000 252.0000 0000000   0.0000  81.0000 15.75573400    16
CTC2_L_00506058-01
1 10456U 24970LX  26075.70047454  .00000000  00000+0  00000-0 0  9998
2 10456  96.8000 256.5000 0000000   0.0000 128.2500 15.75573400    15
CTC2_L_00506058-02
1 10457U 26850HS  26075.70047454  .00000000  00000+0  00000-0 0  9998
2 10457  96.8000 256.5000 0000000   0.0000 173.2500 15.75573400    16
CTC2_L_00506058-03
1 10458U 26786YR  26075.70047454  .00000000  00000+0  00000-0 0  9997
2 10458  96.8000 256.5000 0000000   0.0000 218.2500 15.75573400    17
CTC2_L_00506058-04
1 10459U 26660UX  26075.70047454  .00000000  00000+0  00000-0 0  9999
2 10459  96.8000 256.5000 0000000   0.0000 263.2500 15.75573400    18
CTC2_L_00506058-05
1 10460U 25150XB  26075.70047454  .00000000  00000+0  00000-0 0  9994
2 10460  96.8000 256.5000 0000000   0.0000 308.2500 15.75573400    10
CTC2_L_00506058-06
1 10461U 23147QG  26075.70047454  .00000000  00000+0  00000-0 0  9999
2 10461  96.8000 256.5000 0000000   0.0000 353.2500 15.75573400    11
CTC2_L_00506058-07
1 10462U 22246BJ  26075.70047454  .00000000  00000+0  00000-0 0  9999
2 10462  96.8000 256.5000 0000000   0.0000  38.2500 15.75573400    12
CTC2_L_00506058-08
1 10463U 22773WJ  26075.70047454  .00000000  00000+0  00000-0 0  9995
2 10463  96.8000 256.5000 0000000   0.0000  83.2500 15.75573400    13
CTC2_L_00506059-01
1 10464U 24796FP  26075.70047454  .00000000  00000+0  00000-0 0  9993
2 10464  96.8000 261.0000 0000000   0.0000 130.5000 15.75573400    16
CTC2_L_00506059-02
1 10465U 22763H   26075.70047454  .00000000  00000+0  00000-0 0  9996
2 10465  96.8000 261.0000 0000000   0.0000 175.5000 15.75573400    16
CTC2_L_00506059-03
1 10466U 26296JO  26075.70047454  .00000000  00000+0  00000-0 0  9992
2 10466  96.8000 261.0000 0000000   0.0000 220.5000 15.75573400    18
CTC2_L_00506059-04
1 10467U 24987ZR  26075.70047454  .00000000  00000+0  00000-0 0  9998
2 10467  96.8000 261.0000 0000000   0.0000 265.5000 15.75573400    18
CTC2_L_00506059-05
1 10468U 24206VH  26075.70047454  .00000000  00000+0  00000-0 0  9993
2 10468  96.8000 261.0000 0000000   0.0000 310.5000 15.75573400    10
CTC2_L_00506059-06
1 10469U 24507RB  26075.70047454  .00000000  00000+0  00000-0 0  9998
2 10469  96.8000 261.0000 0000000   0.0000 355.5000 15.75573400    10
CTC2_L_00506059-07
1 10470U 23056RA  26075.70047454  .00000000  00000+0  00000-0 0  9998
2 10470  96.8000 261.0000 0000000   0.0000  40.5000 15.75573400    13
CTC2_L_00506059-08
1 10471U 25471SS  26075.70047454  .00000000  00000+0  00000-0 0  9992
2 10471  96.8000 261.0000 0000000   0.0000  85.5000 15.75573400    13
CTC2_L_00506060-01
1 10472U 22106UE  26075.70047454  .00000000  00000+0  00000-0 0  9995
2 10472  96.8000 265.5000 0000000   0.0000 132.7500 15.75573400    13
CTC2_L_00506060-02
1 10473U 22685A   26075.70047454  .00000000  00000+0  00000-0 0  9998
2 10473  96.8000 265.5000 0000000   0.0000 177.7500 15.75573400    13
CTC2_L_00506060-03
1 10474U 23352KW  26075.70047454  .00000000  00000+0  00000-0 0  9991
2 10474  96.8000 265.5000 0000000   0.0000 222.7500 15.75573400    15
CTC2_L_00506060-04
1 10475U 24719HI  26075.70047454  .00000000  00000+0  00000-0 0  9990
2 10475  96.8000 265.5000 0000000   0.0000 267.7500 15.75573400    15
CTC2_L_00506060-05
1 10476U 24870JF  26075.70047454  .00000000  00000+0  00000-0 0  9999
2 10476  96.8000 265.5000 0000000   0.0000 312.7500 15.75573400    17
CTC2_L_00506060-06
1 10477U 25497HI  26075.70047454  .00000000  00000+0  00000-0 0  9996
2 10477  96.8000 265.5000 0000000   0.0000 357.7500 15.75573400    17
CTC2_L_00506060-07
1 10478U 25853IA  26075.70047454  .00000000  00000+0  00000-0 0  9993
2 10478  96.8000 265.5000 0000000   0.0000  42.7500 15.75573400    19
CTC2_L_00506060-08
1 10479U 22715NY  26075.70047454  .00000000  00000+0  00000-0 0  9998
2 10479  96.8000 265.5000 0000000   0.0000  87.7500 15.75573400    19
CTC2_L_00506061-01
1 10480U 22778LD  26075.70047454  .00000000  00000+0  00000-0 0  9999
2 10480  96.8000 270.0000 0000000   0.0000 135.0000 15.75573400    14
CTC2_L_00506061-02
1 10481U 25553DA  26075.70047454  .00000000  00000+0  00000-0 0  9994
2 10481  96.8000 270.0000 0000000   0.0000 180.0000 15.75573400    15
CTC2_L_00506061-03
1 10482U 23985GG  26075.70047454  .00000000  00000+0  00000-0 0  9992
2 10482  96.8000 270.0000 0000000   0.0000 225.0000 15.75573400    16
CTC2_L_00506061-04
1 10483U 22603EV  26075.70047454  .00000000  00000+0  00000-0 0  9999
2 10483  96.8000 270.0000 0000000   0.0000 270.0000 15.75573400    17
CTC2_L_00506061-05
1 10484U 22793YJ  26075.70047454  .00000000  00000+0  00000-0 0  9990
2 10484  96.8000 270.0000 0000000   0.0000 315.0000 15.75573400    18
CTC2_L_00506061-06
1 10485U 24380GY  26075.70047454  .00000000  00000+0  00000-0 0  9995
2 10485  96.8000 270.0000 0000000   0.0000   0.0000 15.75573400    10
CTC2_L_00506061-07
1 10486U 26192TJ  26075.70047454  .00000000  00000+0  00000-0 0  9999
2 10486  96.8000 270.0000 0000000   0.0000  45.0000 15.75573400    10
CTC2_L_00506061-08
1 10487U 22279IF  26075.70047454  .00000000  00000+0  00000-0 0  9992
2 10487  96.8000 270.0000 0000000   0.0000  90.0000 15.75573400    11
CTC2_L_00506062-01
1 10488U 23880UX  26075.70047454  .00000000  00000+0  00000-0 0  9992
2 10488  96.8000 274.5000 0000000   0.0000 137.2500 15.75573400    10
CTC2_L_00506062-02
1 10489U 22793RD  26075.70047454  .00000000  00000+0  00000-0 0  9995
2 10489  96.8000 274.5000 0000000   0.0000 182.2500 15.75573400    11
CTC2_L_00506062-03
1 10490U 25275JS  26075.70047454  .00000000  00000+0  00000-0 0  9995
2 10490  96.8000 274.5000 0000000   0.0000 227.2500 15.75573400    13
CTC2_L_00506062-04
1 10491U 25291DF  26075.70047454  .00000000  00000+0  00000-0 0  9994
2 10491  96.8000 274.5000 0000000   0.0000 272.2500 15.75573400    14
CTC2_L_00506062-05
1 10492U 24079J   26075.70047454  .00000000  00000+0  00000-0 0  9998
2 10492  96.8000 274.5000 0000000   0.0000 317.2500 15.75573400    15
CTC2_L_00506062-06
1 10493U 23169A   26075.70047454  .00000000  00000+0  00000-0 0  9998
2 10493  96.8000 274.5000 0000000   0.0000   2.2500 15.75573400    17
CTC2_L_00506062-07
1 10494U 26380JS  26075.70047454  .00000000  00000+0  00000-0 0  9997
2 10494  96.8000 274.5000 0000000   0.0000  47.2500 15.75573400    17
CTC2_L_00506062-08
1 10495U 25258AC  26075.70047454  .00000000  00000+0  00000-0 0  9991
2 10495  96.8000 274.5000 0000000   0.0000  92.2500 15.75573400    18
